[
  {
    "Location": "A F station yelahanka",
    "Pincode": 560063,
    "State": "Karnataka",
    "District": "Bangalore"
  },
  {
    "Location": "Adugodi",
    "Pincode": 560030,
    "State": "Karnataka",
    "District": "Bangalore"
  },
  {
    "Location": "Agara",
    "Pincode": 560034,
    "State": "Karnataka",
    "District": "Bangalore"
  },
  {
    "Location": "Agram",
    "Pincode": 560007,
    "State": "Karnataka",
    "District": "Bangalore"
  },
  {
    "Location": "Air Force hospital",
    "Pincode": 560007,
    "State": "Karnataka",
    "District": "Bangalore"
  },
  {
    "Location": "Amruthahalli",
    "Pincode": 560092,
    "State": "Karnataka",
    "District": "Bangalore"
  },
  {
    "Location": "Anandnagar",
    "Pincode": 560024,
    "State": "Karnataka",
    "District": "Bangalore"
  },
  {
    "Location": "Anekal",
    "Pincode": 562106,
    "State": "Karnataka",
    "District": "Bangalore"
  },
  {
    "Location": "Anekalbazar",
    "Pincode": 562106,
    "State": "Karnataka",
    "District": "Bangalore"
  },
  {
    "Location": "Arabic College",
    "Pincode": 560045,
    "State": "Karnataka",
    "District": "Bangalore"
  },
  {
    "Location": "Aranya Bhavan",
    "Pincode": 560003,
    "State": "Karnataka",
    "District": "Bangalore"
  },
  {
    "Location": "Ashoknagar",
    "Pincode": 560050,
    "State": "Karnataka",
    "District": "Bangalore"
  },
  {
    "Location": "Attibele",
    "Pincode": 562107,
    "State": "Karnataka",
    "District": "Bangalore"
  },
  {
    "Location": "Attur",
    "Pincode": 560064,
    "State": "Karnataka",
    "District": "Bangalore"
  },
  {
    "Location": "Austin Town",
    "Pincode": 560047,
    "State": "Karnataka",
    "District": "Bangalore"
  },
  {
    "Location": "Avalahalli",
    "Pincode": 560026,
    "State": "Karnataka",
    "District": "Bangalore"
  },
  {
    "Location": "Avani Sringeri mutt",
    "Pincode": 560086,
    "State": "Karnataka",
    "District": "Bangalore"
  },
  {
    "Location": "Avenue Road",
    "Pincode": 560002,
    "State": "Karnataka",
    "District": "Bangalore"
  },
  {
    "Location": "B Sk ii stage",
    "Pincode": 560070,
    "State": "Karnataka",
    "District": "Bangalore"
  },
  {
    "Location": "Bsf Campus yelahanka",
    "Pincode": 560064,
    "State": "Karnataka",
    "District": "Bangalore"
  },
  {
    "Location": "Bagalgunte",
    "Pincode": 560073,
    "State": "Karnataka",
    "District": "Bangalore"
  },
  {
    "Location": "Bagalur",
    "Pincode": 562149,
    "State": "Karnataka",
    "District": "Bangalore"
  },
  {
    "Location": "Balepete",
    "Pincode": 560053,
    "State": "Karnataka",
    "District": "Bangalore"
  },
  {
    "Location": "Banashankari",
    "Pincode": 560050,
    "State": "Karnataka",
    "District": "Bangalore"
  },
  {
    "Location": "Banashankari Iii stage",
    "Pincode": 560085,
    "State": "Karnataka",
    "District": "Bangalore"
  },
  {
    "Location": "Banaswadi",
    "Pincode": 560043,
    "State": "Karnataka",
    "District": "Bangalore"
  },
  {
    "Location": "Bandikodigehalli",
    "Pincode": 562149,
    "State": "Karnataka",
    "District": "Bangalore"
  },
  {
    "Location": "Bangalore Air port",
    "Pincode": 560017,
    "State": "Karnataka",
    "District": "Bangalore"
  },
  {
    "Location": "Bangalore Bazaar",
    "Pincode": 560001,
    "State": "Karnataka",
    "District": "Bangalore"
  },
  {
    "Location": "Bangalore City",
    "Pincode": 560002,
    "State": "Karnataka",
    "District": "Bangalore"
  },
  {
    "Location": "Bangalore Corporation building",
    "Pincode": 560002,
    "State": "Karnataka",
    "District": "Bangalore"
  },
  {
    "Location": "Bangalore Dist offices bldg",
    "Pincode": 560009,
    "State": "Karnataka",
    "District": "Bangalore"
  },
  {
    "Location": "Bangalore Fort",
    "Pincode": 560002,
    "State": "Karnataka",
    "District": "Bangalore"
  },
  {
    "Location": "Bangalore Sub fgn post",
    "Pincode": 560025,
    "State": "Karnataka",
    "District": "Bangalore"
  },
  {
    "Location": "Bangalore.",
    "Pincode": 560001,
    "State": "Karnataka",
    "District": "Bangalore"
  },
  {
    "Location": "Bannerghatta",
    "Pincode": 560083,
    "State": "Karnataka",
    "District": "Bangalore"
  },
  {
    "Location": "Bannerghatta Road",
    "Pincode": 560076,
    "State": "Karnataka",
    "District": "Bangalore"
  },
  {
    "Location": "Bapujinagar",
    "Pincode": 560026,
    "State": "Karnataka",
    "District": "Bangalore"
  },
  {
    "Location": "Basavanagudi",
    "Pincode": 560004,
    "State": "Karnataka",
    "District": "Bangalore"
  },
  {
    "Location": "Basavaraja Market",
    "Pincode": 560002,
    "State": "Karnataka",
    "District": "Bangalore"
  },
  {
    "Location": "Basaveshwaranagar",
    "Pincode": 560079,
    "State": "Karnataka",
    "District": "Bangalore"
  },
  {
    "Location": "Basaveswaranagar Ii stage",
    "Pincode": 560086,
    "State": "Karnataka",
    "District": "Bangalore"
  },
  {
    "Location": "Bellandur",
    "Pincode": 560103,
    "State": "Karnataka",
    "District": "Bangalore"
  },
  {
    "Location": "Benson Town",
    "Pincode": 560046,
    "State": "Karnataka",
    "District": "Bangalore"
  },
  {
    "Location": "Bestamaranahalli",
    "Pincode": 562106,
    "State": "Karnataka",
    "District": "Bangalore"
  },
  {
    "Location": "Bettahalsur",
    "Pincode": 562157,
    "State": "Karnataka",
    "District": "Bangalore"
  },
  {
    "Location": "Bhashyam Circle",
    "Pincode": 560010,
    "State": "Karnataka",
    "District": "Bangalore"
  },
  {
    "Location": "Bhattarahalli",
    "Pincode": 560049,
    "State": "Karnataka",
    "District": "Bangalore"
  },
  {
    "Location": "Bidaraguppe",
    "Pincode": 562107,
    "State": "Karnataka",
    "District": "Bangalore"
  },
  {
    "Location": "Bidrahalli",
    "Pincode": 560049,
    "State": "Karnataka",
    "District": "Bangalore"
  },
  {
    "Location": "Bnagalore Viswavidalaya",
    "Pincode": 560056,
    "State": "Karnataka",
    "District": "Bangalore"
  },
  {
    "Location": "Bommanahalli",
    "Pincode": 560068,
    "State": "Karnataka",
    "District": "Bangalore"
  },
  {
    "Location": "Brigade Road",
    "Pincode": 560001,
    "State": "Karnataka",
    "District": "Bangalore"
  },
  {
    "Location": "Byatarayanapura",
    "Pincode": 560026,
    "State": "Karnataka",
    "District": "Bangalore"
  },
  {
    "Location": "C.V.raman nagar",
    "Pincode": 560093,
    "State": "Karnataka",
    "District": "Bangalore"
  },
  {
    "Location": "Cmp Centre and school",
    "Pincode": 560025,
    "State": "Karnataka",
    "District": "Bangalore"
  },
  {
    "Location": "Crpf Campus yelahanka",
    "Pincode": 560064,
    "State": "Karnataka",
    "District": "Bangalore"
  },
  {
    "Location": "Cahmrajendrapet",
    "Pincode": 560002,
    "State": "Karnataka",
    "District": "Bangalore"
  },
  {
    "Location": "Chamrajpet",
    "Pincode": 560018,
    "State": "Karnataka",
    "District": "Bangalore"
  },
  {
    "Location": "Chamrajpet Bazar",
    "Pincode": 560018,
    "State": "Karnataka",
    "District": "Bangalore"
  },
  {
    "Location": "Chandra Lay out",
    "Pincode": 560040,
    "State": "Karnataka",
    "District": "Bangalore"
  },
  {
    "Location": "Chickpet",
    "Pincode": 560053,
    "State": "Karnataka",
    "District": "Bangalore"
  },
  {
    "Location": "Chikkabettahalli",
    "Pincode": 560097,
    "State": "Karnataka",
    "District": "Bangalore"
  },
  {
    "Location": "Chikkajala",
    "Pincode": 562157,
    "State": "Karnataka",
    "District": "Bangalore"
  },
  {
    "Location": "Chikkalasandra",
    "Pincode": 560061,
    "State": "Karnataka",
    "District": "Bangalore"
  },
  {
    "Location": "Chikkanahalli",
    "Pincode": 562130,
    "State": "Karnataka",
    "District": "Bangalore"
  },
  {
    "Location": "Chunchanakuppe",
    "Pincode": 562130,
    "State": "Karnataka",
    "District": "Bangalore"
  },
  {
    "Location": "Cubban Road",
    "Pincode": 560001,
    "State": "Karnataka",
    "District": "Bangalore"
  },
  {
    "Location": "Dasarahalli",
    "Pincode": 560050,
    "State": "Karnataka",
    "District": "Bangalore"
  },
  {
    "Location": "Deepanjalinagar",
    "Pincode": 560026,
    "State": "Karnataka",
    "District": "Bangalore"
  },
  {
    "Location": "Devanagundi",
    "Pincode": 560067,
    "State": "Karnataka",
    "District": "Bangalore"
  },
  {
    "Location": "Devarjeevanahalli",
    "Pincode": 560045,
    "State": "Karnataka",
    "District": "Bangalore"
  },
  {
    "Location": "Devasandra",
    "Pincode": 560036,
    "State": "Karnataka",
    "District": "Bangalore"
  },
  {
    "Location": "Dharmaram College",
    "Pincode": 560029,
    "State": "Karnataka",
    "District": "Bangalore"
  },
  {
    "Location": "Doddagubbi",
    "Pincode": 562149,
    "State": "Karnataka",
    "District": "Bangalore"
  },
  {
    "Location": "Doddajala",
    "Pincode": 562157,
    "State": "Karnataka",
    "District": "Bangalore"
  },
  {
    "Location": "Doddakallasandra",
    "Pincode": 560062,
    "State": "Karnataka",
    "District": "Bangalore"
  },
  {
    "Location": "Doddanekkundi",
    "Pincode": 560037,
    "State": "Karnataka",
    "District": "Bangalore"
  },
  {
    "Location": "Domlur",
    "Pincode": 560071,
    "State": "Karnataka",
    "District": "Bangalore"
  },
  {
    "Location": "Dommasandra",
    "Pincode": 562125,
    "State": "Karnataka",
    "District": "Bangalore"
  },
  {
    "Location": "Doorvaninagar",
    "Pincode": 560016,
    "State": "Karnataka",
    "District": "Bangalore"
  },
  {
    "Location": "Dr. ambedkar veedhi",
    "Pincode": 560001,
    "State": "Karnataka",
    "District": "Bangalore"
  },
  {
    "Location": "Electronics City",
    "Pincode": 560100,
    "State": "Karnataka",
    "District": "Bangalore"
  },
  {
    "Location": "Fraser Town",
    "Pincode": 560005,
    "State": "Karnataka",
    "District": "Bangalore"
  },
  {
    "Location": "G.K.v.k.",
    "Pincode": 560065,
    "State": "Karnataka",
    "District": "Bangalore"
  },
  {
    "Location": "Gaviopuram Extension",
    "Pincode": 560019,
    "State": "Karnataka",
    "District": "Bangalore"
  },
  {
    "Location": "Gaviopuram Guttanahalli",
    "Pincode": 560019,
    "State": "Karnataka",
    "District": "Bangalore"
  },
  {
    "Location": "Gayathrinagar",
    "Pincode": 560021,
    "State": "Karnataka",
    "District": "Bangalore"
  },
  {
    "Location": "Girinagar",
    "Pincode": 560085,
    "State": "Karnataka",
    "District": "Bangalore"
  },
  {
    "Location": "Goraguntepalya",
    "Pincode": 560022,
    "State": "Karnataka",
    "District": "Bangalore"
  },
  {
    "Location": "Goripalya",
    "Pincode": 560026,
    "State": "Karnataka",
    "District": "Bangalore"
  },
  {
    "Location": "Governmemnt Electric factory",
    "Pincode": 560026,
    "State": "Karnataka",
    "District": "Bangalore"
  },
  {
    "Location": "Govindapalya",
    "Pincode": 560013,
    "State": "Karnataka",
    "District": "Bangalore"
  },
  {
    "Location": "Gunjur",
    "Pincode": 560087,
    "State": "Karnataka",
    "District": "Bangalore"
  },
  {
    "Location": "H M t",
    "Pincode": 560013,
    "State": "Karnataka",
    "District": "Bangalore"
  },
  {
    "Location": "H.A. farm",
    "Pincode": 560024,
    "State": "Karnataka",
    "District": "Bangalore"
  },
  {
    "Location": "H.A.l ii stage",
    "Pincode": 560008,
    "State": "Karnataka",
    "District": "Bangalore"
  },
  {
    "Location": "H.K.p. road",
    "Pincode": 560051,
    "State": "Karnataka",
    "District": "Bangalore"
  },
  {
    "Location": "Hsr Layout",
    "Pincode": 560102,
    "State": "Karnataka",
    "District": "Bangalore"
  },
  {
    "Location": "Hampinagar",
    "Pincode": 560104,
    "State": "Karnataka",
    "District": "Bangalore"
  },
  {
    "Location": "Handenahalli",
    "Pincode": 562125,
    "State": "Karnataka",
    "District": "Bangalore"
  },
  {
    "Location": "Harogadde",
    "Pincode": 562106,
    "State": "Karnataka",
    "District": "Bangalore"
  },
  {
    "Location": "Hebbal Kempapura",
    "Pincode": 560024,
    "State": "Karnataka",
    "District": "Bangalore"
  },
  {
    "Location": "Hennagara",
    "Pincode": 562106,
    "State": "Karnataka",
    "District": "Bangalore"
  },
  {
    "Location": "Highcourt",
    "Pincode": 560001,
    "State": "Karnataka",
    "District": "Bangalore"
  },
  {
    "Location": "Hongasandra",
    "Pincode": 560068,
    "State": "Karnataka",
    "District": "Bangalore"
  },
  {
    "Location": "Hoodi",
    "Pincode": 560048,
    "State": "Karnataka",
    "District": "Bangalore"
  },
  {
    "Location": "Horamavu",
    "Pincode": 560043,
    "State": "Karnataka",
    "District": "Bangalore"
  },
  {
    "Location": "Hosakerehalli",
    "Pincode": 560085,
    "State": "Karnataka",
    "District": "Bangalore"
  },
  {
    "Location": "Hosur Road",
    "Pincode": 560030,
    "State": "Karnataka",
    "District": "Bangalore"
  },
  {
    "Location": "Hulimangala",
    "Pincode": 562106,
    "State": "Karnataka",
    "District": "Bangalore"
  },
  {
    "Location": "Hulimavu",
    "Pincode": 560076,
    "State": "Karnataka",
    "District": "Bangalore"
  },
  {
    "Location": "Hulsur Bazaar",
    "Pincode": 560008,
    "State": "Karnataka",
    "District": "Bangalore"
  },
  {
    "Location": "Hunasamaranahalli",
    "Pincode": 562157,
    "State": "Karnataka",
    "District": "Bangalore"
  },
  {
    "Location": "Isro Anthariksha bhavan",
    "Pincode": 560094,
    "State": "Karnataka",
    "District": "Bangalore"
  },
  {
    "Location": "Immedihalli",
    "Pincode": 560066,
    "State": "Karnataka",
    "District": "Bangalore"
  },
  {
    "Location": "Indalavadi",
    "Pincode": 562106,
    "State": "Karnataka",
    "District": "Bangalore"
  },
  {
    "Location": "Indiranagar",
    "Pincode": 560038,
    "State": "Karnataka",
    "District": "Bangalore"
  },
  {
    "Location": "Indiranagar Com. complex",
    "Pincode": 560038,
    "State": "Karnataka",
    "District": "Bangalore"
  },
  {
    "Location": "Industrial Estate",
    "Pincode": 560010,
    "State": "Karnataka",
    "District": "Bangalore"
  },
  {
    "Location": "Ittamadu Layout",
    "Pincode": 560085,
    "State": "Karnataka",
    "District": "Bangalore"
  },
  {
    "Location": "J P nagar",
    "Pincode": 560078,
    "State": "Karnataka",
    "District": "Bangalore"
  },
  {
    "Location": "J.C.nagar",
    "Pincode": 560006,
    "State": "Karnataka",
    "District": "Bangalore"
  },
  {
    "Location": "Jakkur",
    "Pincode": 560064,
    "State": "Karnataka",
    "District": "Bangalore"
  },
  {
    "Location": "Jalahalli",
    "Pincode": 560013,
    "State": "Karnataka",
    "District": "Bangalore"
  },
  {
    "Location": "Jalahalli East",
    "Pincode": 560014,
    "State": "Karnataka",
    "District": "Bangalore"
  },
  {
    "Location": "Jalahalli Village",
    "Pincode": 560013,
    "State": "Karnataka",
    "District": "Bangalore"
  },
  {
    "Location": "Jalahalli West",
    "Pincode": 560015,
    "State": "Karnataka",
    "District": "Bangalore"
  },
  {
    "Location": "Jalavayuvihar",
    "Pincode": 560043,
    "State": "Karnataka",
    "District": "Bangalore"
  },
  {
    "Location": "Jayanagar",
    "Pincode": 560041,
    "State": "Karnataka",
    "District": "Bangalore"
  },
  {
    "Location": "Jayanagar West",
    "Pincode": 560070,
    "State": "Karnataka",
    "District": "Bangalore"
  },
  {
    "Location": "Jayangar East",
    "Pincode": 560069,
    "State": "Karnataka",
    "District": "Bangalore"
  },
  {
    "Location": "Jayangar Iii block",
    "Pincode": 560011,
    "State": "Karnataka",
    "District": "Bangalore"
  },
  {
    "Location": "Jeevanahalli",
    "Pincode": 560005,
    "State": "Karnataka",
    "District": "Bangalore"
  },
  {
    "Location": "Jeevanbhimanagar",
    "Pincode": 560066,
    "State": "Karnataka",
    "District": "Bangalore"
  },
  {
    "Location": "Jigani",
    "Pincode": 562106,
    "State": "Karnataka",
    "District": "Bangalore"
  },
  {
    "Location": "Jp Nagar iii phase",
    "Pincode": 560078,
    "State": "Karnataka",
    "District": "Bangalore"
  },
  {
    "Location": "K H b colony",
    "Pincode": 560079,
    "State": "Karnataka",
    "District": "Bangalore"
  },
  {
    "Location": "K. g. road",
    "Pincode": 560009,
    "State": "Karnataka",
    "District": "Bangalore"
  },
  {
    "Location": "K.P.west",
    "Pincode": 560020,
    "State": "Karnataka",
    "District": "Bangalore"
  },
  {
    "Location": "Kacharakanahalli",
    "Pincode": 560084,
    "State": "Karnataka",
    "District": "Bangalore"
  },
  {
    "Location": "Kadabagere",
    "Pincode": 562130,
    "State": "Karnataka",
    "District": "Bangalore"
  },
  {
    "Location": "Kadugodi",
    "Pincode": 560067,
    "State": "Karnataka",
    "District": "Bangalore"
  },
  {
    "Location": "Kalkunte",
    "Pincode": 560067,
    "State": "Karnataka",
    "District": "Bangalore"
  },
  {
    "Location": "Kalyanagar",
    "Pincode": 560043,
    "State": "Karnataka",
    "District": "Bangalore"
  },
  {
    "Location": "Kamagondanahalli",
    "Pincode": 560015,
    "State": "Karnataka",
    "District": "Bangalore"
  },
  {
    "Location": "Kamakshipalya",
    "Pincode": 560079,
    "State": "Karnataka",
    "District": "Bangalore"
  },
  {
    "Location": "Kannamangala",
    "Pincode": 560067,
    "State": "Karnataka",
    "District": "Bangalore"
  },
  {
    "Location": "Kannur",
    "Pincode": 562149,
    "State": "Karnataka",
    "District": "Bangalore"
  },
  {
    "Location": "Kanteeravanagar",
    "Pincode": 560096,
    "State": "Karnataka",
    "District": "Bangalore"
  },
  {
    "Location": "Kathriguppe",
    "Pincode": 560085,
    "State": "Karnataka",
    "District": "Bangalore"
  },
  {
    "Location": "Kenchanahalli",
    "Pincode": 560098,
    "State": "Karnataka",
    "District": "Bangalore"
  },
  {
    "Location": "Kendriya Sadan",
    "Pincode": 560034,
    "State": "Karnataka",
    "District": "Bangalore"
  },
  {
    "Location": "Kendriya Vihar",
    "Pincode": 560064,
    "State": "Karnataka",
    "District": "Bangalore"
  },
  {
    "Location": "Kodigehalli",
    "Pincode": 560092,
    "State": "Karnataka",
    "District": "Bangalore"
  },
  {
    "Location": "Konanakunte",
    "Pincode": 560062,
    "State": "Karnataka",
    "District": "Bangalore"
  },
  {
    "Location": "Koramangala",
    "Pincode": 560034,
    "State": "Karnataka",
    "District": "Bangalore"
  },
  {
    "Location": "Koramangala I block",
    "Pincode": 560034,
    "State": "Karnataka",
    "District": "Bangalore"
  },
  {
    "Location": "Koramangala Vi bk",
    "Pincode": 560095,
    "State": "Karnataka",
    "District": "Bangalore"
  },
  {
    "Location": "Kothanur",
    "Pincode": 560077,
    "State": "Karnataka",
    "District": "Bangalore"
  },
  {
    "Location": "Krishnarajapuram",
    "Pincode": 560036,
    "State": "Karnataka",
    "District": "Bangalore"
  },
  {
    "Location": "Krishnarajapuram R s",
    "Pincode": 560016,
    "State": "Karnataka",
    "District": "Bangalore"
  },
  {
    "Location": "Kugur",
    "Pincode": 562125,
    "State": "Karnataka",
    "District": "Bangalore"
  },
  {
    "Location": "Kumaraswamy Layout",
    "Pincode": 560078,
    "State": "Karnataka",
    "District": "Bangalore"
  },
  {
    "Location": "Kumbalgodu",
    "Pincode": 560074,
    "State": "Karnataka",
    "District": "Bangalore"
  },
  {
    "Location": "Kundalahalli",
    "Pincode": 560037,
    "State": "Karnataka",
    "District": "Bangalore"
  },
  {
    "Location": "Lalbagh West",
    "Pincode": 560004,
    "State": "Karnataka",
    "District": "Bangalore"
  },
  {
    "Location": "Legislators Home",
    "Pincode": 560001,
    "State": "Karnataka",
    "District": "Bangalore"
  },
  {
    "Location": "Lingarajapuram",
    "Pincode": 560084,
    "State": "Karnataka",
    "District": "Bangalore"
  },
  {
    "Location": "M S r road",
    "Pincode": 560054,
    "State": "Karnataka",
    "District": "Bangalore"
  },
  {
    "Location": "Madhavan Park",
    "Pincode": 560011,
    "State": "Karnataka",
    "District": "Bangalore"
  },
  {
    "Location": "Madivala",
    "Pincode": 560068,
    "State": "Karnataka",
    "District": "Bangalore"
  },
  {
    "Location": "Magadi Road",
    "Pincode": 560023,
    "State": "Karnataka",
    "District": "Bangalore"
  },
  {
    "Location": "Mahadevapura",
    "Pincode": 560048,
    "State": "Karnataka",
    "District": "Bangalore"
  },
  {
    "Location": "Mahalakshmipuram Layout",
    "Pincode": 560086,
    "State": "Karnataka",
    "District": "Bangalore"
  },
  {
    "Location": "Mahatma Gandhi road",
    "Pincode": 560001,
    "State": "Karnataka",
    "District": "Bangalore"
  },
  {
    "Location": "Malkand Lines",
    "Pincode": 560033,
    "State": "Karnataka",
    "District": "Bangalore"
  },
  {
    "Location": "Mallathahalli",
    "Pincode": 560056,
    "State": "Karnataka",
    "District": "Bangalore"
  },
  {
    "Location": "Malleswaram",
    "Pincode": 560003,
    "State": "Karnataka",
    "District": "Bangalore"
  },
  {
    "Location": "Malleswaram West",
    "Pincode": 560055,
    "State": "Karnataka",
    "District": "Bangalore"
  },
  {
    "Location": "Mandalay Lines",
    "Pincode": 560033,
    "State": "Karnataka",
    "District": "Bangalore"
  },
  {
    "Location": "Marathahalli Colony",
    "Pincode": 560037,
    "State": "Karnataka",
    "District": "Bangalore"
  },
  {
    "Location": "Marsur",
    "Pincode": 562106,
    "State": "Karnataka",
    "District": "Bangalore"
  },
  {
    "Location": "Maruthi Sevanagar",
    "Pincode": 560033,
    "State": "Karnataka",
    "District": "Bangalore"
  },
  {
    "Location": "Mathikere",
    "Pincode": 560054,
    "State": "Karnataka",
    "District": "Bangalore"
  },
  {
    "Location": "Mavalli",
    "Pincode": 560004,
    "State": "Karnataka",
    "District": "Bangalore"
  },
  {
    "Location": "Mayasandra",
    "Pincode": 562107,
    "State": "Karnataka",
    "District": "Bangalore"
  },
  {
    "Location": "Medihalli",
    "Pincode": 560049,
    "State": "Karnataka",
    "District": "Bangalore"
  },
  {
    "Location": "Medimallasandra",
    "Pincode": 560067,
    "State": "Karnataka",
    "District": "Bangalore"
  },
  {
    "Location": "Mico Layout",
    "Pincode": 560076,
    "State": "Karnataka",
    "District": "Bangalore"
  },
  {
    "Location": "Milk Colony",
    "Pincode": 560055,
    "State": "Karnataka",
    "District": "Bangalore"
  },
  {
    "Location": "Mount St joseph",
    "Pincode": 560076,
    "State": "Karnataka",
    "District": "Bangalore"
  },
  {
    "Location": "Msrit",
    "Pincode": 560054,
    "State": "Karnataka",
    "District": "Bangalore"
  },
  {
    "Location": "Mundur",
    "Pincode": 560049,
    "State": "Karnataka",
    "District": "Bangalore"
  },
  {
    "Location": "Museum Road",
    "Pincode": 560025,
    "State": "Karnataka",
    "District": "Bangalore"
  },
  {
    "Location": "Muthanallur",
    "Pincode": 560099,
    "State": "Karnataka",
    "District": "Bangalore"
  },
  {
    "Location": "Muthusandra",
    "Pincode": 560087,
    "State": "Karnataka",
    "District": "Bangalore"
  },
  {
    "Location": "Nal",
    "Pincode": 560017,
    "State": "Karnataka",
    "District": "Bangalore"
  },
  {
    "Location": "Naduvathi",
    "Pincode": 560067,
    "State": "Karnataka",
    "District": "Bangalore"
  },
  {
    "Location": "Nagarbhavi",
    "Pincode": 560072,
    "State": "Karnataka",
    "District": "Bangalore"
  },
  {
    "Location": "Nagasandra",
    "Pincode": 560073,
    "State": "Karnataka",
    "District": "Bangalore"
  },
  {
    "Location": "Nagavara",
    "Pincode": 560045,
    "State": "Karnataka",
    "District": "Bangalore"
  },
  {
    "Location": "Nandinilayout",
    "Pincode": 560096,
    "State": "Karnataka",
    "District": "Bangalore"
  },
  {
    "Location": "Narasimharaja Colony",
    "Pincode": 560019,
    "State": "Karnataka",
    "District": "Bangalore"
  },
  {
    "Location": "Narasimjharaja Road",
    "Pincode": 560002,
    "State": "Karnataka",
    "District": "Bangalore"
  },
  {
    "Location": "Narayan Pillai street",
    "Pincode": 560001,
    "State": "Karnataka",
    "District": "Bangalore"
  },
  {
    "Location": "Nayandahalli",
    "Pincode": 560039,
    "State": "Karnataka",
    "District": "Bangalore"
  },
  {
    "Location": "Neralur",
    "Pincode": 562107,
    "State": "Karnataka",
    "District": "Bangalore"
  },
  {
    "Location": "New Tharaggupet",
    "Pincode": 560002,
    "State": "Karnataka",
    "District": "Bangalore"
  },
  {
    "Location": "New Thippasandra",
    "Pincode": 560075,
    "State": "Karnataka",
    "District": "Bangalore"
  },
  {
    "Location": "Okalipuram",
    "Pincode": 560021,
    "State": "Karnataka",
    "District": "Bangalore"
  },
  {
    "Location": "P&t Col. kavalbyrasandra",
    "Pincode": 560032,
    "State": "Karnataka",
    "District": "Bangalore"
  },
  {
    "Location": "Padmanabhnagar",
    "Pincode": 560070,
    "State": "Karnataka",
    "District": "Bangalore"
  },
  {
    "Location": "Palace Guttahalli",
    "Pincode": 560003,
    "State": "Karnataka",
    "District": "Bangalore"
  },
  {
    "Location": "Panathur",
    "Pincode": 560087,
    "State": "Karnataka",
    "District": "Bangalore"
  },
  {
    "Location": "Pasmpamahakavi Road",
    "Pincode": 560004,
    "State": "Karnataka",
    "District": "Bangalore"
  },
  {
    "Location": "Peenya I stage",
    "Pincode": 560058,
    "State": "Karnataka",
    "District": "Bangalore"
  },
  {
    "Location": "Peenya Ii stage",
    "Pincode": 560058,
    "State": "Karnataka",
    "District": "Bangalore"
  },
  {
    "Location": "Peenya Small industries",
    "Pincode": 560058,
    "State": "Karnataka",
    "District": "Bangalore"
  },
  {
    "Location": "R T nagar",
    "Pincode": 560032,
    "State": "Karnataka",
    "District": "Bangalore"
  },
  {
    "Location": "R.M.v. extension ii stage",
    "Pincode": 560094,
    "State": "Karnataka",
    "District": "Bangalore"
  },
  {
    "Location": "Rajajinagar",
    "Pincode": 560010,
    "State": "Karnataka",
    "District": "Bangalore"
  },
  {
    "Location": "Rajajinagar I block",
    "Pincode": 560010,
    "State": "Karnataka",
    "District": "Bangalore"
  },
  {
    "Location": "Rajajinagar Ivth block",
    "Pincode": 560010,
    "State": "Karnataka",
    "District": "Bangalore"
  },
  {
    "Location": "Rajanakunte",
    "Pincode": 560064,
    "State": "Karnataka",
    "District": "Bangalore"
  },
  {
    "Location": "Rajarajeshwarinagar",
    "Pincode": 560098,
    "State": "Karnataka",
    "District": "Bangalore"
  },
  {
    "Location": "Rajbhavan",
    "Pincode": 560001,
    "State": "Karnataka",
    "District": "Bangalore"
  },
  {
    "Location": "Ramachandrapuram",
    "Pincode": 560021,
    "State": "Karnataka",
    "District": "Bangalore"
  },
  {
    "Location": "Ramagondanahalli",
    "Pincode": 560066,
    "State": "Karnataka",
    "District": "Bangalore"
  },
  {
    "Location": "Ramakrishna Hegde nagar",
    "Pincode": 560045,
    "State": "Karnataka",
    "District": "Bangalore"
  },
  {
    "Location": "Ramamurthy Nagar",
    "Pincode": 560016,
    "State": "Karnataka",
    "District": "Bangalore"
  },
  {
    "Location": "Rameshnagar",
    "Pincode": 560037,
    "State": "Karnataka",
    "District": "Bangalore"
  },
  {
    "Location": "Richmond Town",
    "Pincode": 560025,
    "State": "Karnataka",
    "District": "Bangalore"
  },
  {
    "Location": "Rv Niketan",
    "Pincode": 560059,
    "State": "Karnataka",
    "District": "Bangalore"
  },
  {
    "Location": "Sadashivanagar",
    "Pincode": 560080,
    "State": "Karnataka",
    "District": "Bangalore"
  },
  {
    "Location": "Sahakaranagar P.o",
    "Pincode": 560092,
    "State": "Karnataka",
    "District": "Bangalore"
  },
  {
    "Location": "Samandur",
    "Pincode": 562106,
    "State": "Karnataka",
    "District": "Bangalore"
  },
  {
    "Location": "Samethanahalli",
    "Pincode": 560067,
    "State": "Karnataka",
    "District": "Bangalore"
  },
  {
    "Location": "Sampangiramnagar",
    "Pincode": 560027,
    "State": "Karnataka",
    "District": "Bangalore"
  },
  {
    "Location": "Sarjapura",
    "Pincode": 562125,
    "State": "Karnataka",
    "District": "Bangalore"
  },
  {
    "Location": "Science Institute",
    "Pincode": 560012,
    "State": "Karnataka",
    "District": "Bangalore"
  },
  {
    "Location": "Seshadripuram",
    "Pincode": 560020,
    "State": "Karnataka",
    "District": "Bangalore"
  },
  {
    "Location": "Shankarpura",
    "Pincode": 560004,
    "State": "Karnataka",
    "District": "Bangalore"
  },
  {
    "Location": "Shanthinagar",
    "Pincode": 560027,
    "State": "Karnataka",
    "District": "Bangalore"
  },
  {
    "Location": "Sidihoskote",
    "Pincode": 562106,
    "State": "Karnataka",
    "District": "Bangalore"
  },
  {
    "Location": "Singanayakanahalli",
    "Pincode": 560064,
    "State": "Karnataka",
    "District": "Bangalore"
  },
  {
    "Location": "Sivan Chetty gardens",
    "Pincode": 560042,
    "State": "Karnataka",
    "District": "Bangalore"
  },
  {
    "Location": "Someswarapura",
    "Pincode": 560008,
    "State": "Karnataka",
    "District": "Bangalore"
  },
  {
    "Location": "Sri Jayachamarajendra road",
    "Pincode": 560002,
    "State": "Karnataka",
    "District": "Bangalore"
  },
  {
    "Location": "Srirampuram",
    "Pincode": 560021,
    "State": "Karnataka",
    "District": "Bangalore"
  },
  {
    "Location": "St. john's medical college",
    "Pincode": 560034,
    "State": "Karnataka",
    "District": "Bangalore"
  },
  {
    "Location": "St. thomas town",
    "Pincode": 560084,
    "State": "Karnataka",
    "District": "Bangalore"
  },
  {
    "Location": "State Bank of mysore colony",
    "Pincode": 560050,
    "State": "Karnataka",
    "District": "Bangalore"
  },
  {
    "Location": "Subhashnagar",
    "Pincode": 560009,
    "State": "Karnataka",
    "District": "Bangalore"
  },
  {
    "Location": "Subramanyapura",
    "Pincode": 560061,
    "State": "Karnataka",
    "District": "Bangalore"
  },
  {
    "Location": "Swimming Pool extn",
    "Pincode": 560003,
    "State": "Karnataka",
    "District": "Bangalore"
  },
  {
    "Location": "Tarahunise",
    "Pincode": 562157,
    "State": "Karnataka",
    "District": "Bangalore"
  },
  {
    "Location": "Tavarekere",
    "Pincode": 562130,
    "State": "Karnataka",
    "District": "Bangalore"
  },
  {
    "Location": "Taverekere",
    "Pincode": 560029,
    "State": "Karnataka",
    "District": "Bangalore"
  },
  {
    "Location": "Thambuchetty Palya",
    "Pincode": 560049,
    "State": "Karnataka",
    "District": "Bangalore"
  },
  {
    "Location": "Thammanayakanahalli",
    "Pincode": 562106,
    "State": "Karnataka",
    "District": "Bangalore"
  },
  {
    "Location": "Tilaknagar",
    "Pincode": 560041,
    "State": "Karnataka",
    "District": "Bangalore"
  },
  {
    "Location": "Training Command iaf",
    "Pincode": 560006,
    "State": "Karnataka",
    "District": "Bangalore"
  },
  {
    "Location": "Tyagrajnagar",
    "Pincode": 560028,
    "State": "Karnataka",
    "District": "Bangalore"
  },
  {
    "Location": "Ullalu Upanagara",
    "Pincode": 560056,
    "State": "Karnataka",
    "District": "Bangalore"
  },
  {
    "Location": "Vanakanahalli",
    "Pincode": 562106,
    "State": "Karnataka",
    "District": "Bangalore"
  },
  {
    "Location": "Vartur",
    "Pincode": 560087,
    "State": "Karnataka",
    "District": "Bangalore"
  },
  {
    "Location": "Vasanthnagar",
    "Pincode": 560052,
    "State": "Karnataka",
    "District": "Bangalore"
  },
  {
    "Location": "Venkatarangapura",
    "Pincode": 560003,
    "State": "Karnataka",
    "District": "Bangalore"
  },
  {
    "Location": "Venkateshapura",
    "Pincode": 560045,
    "State": "Karnataka",
    "District": "Bangalore"
  },
  {
    "Location": "Vidhana Soudha",
    "Pincode": 560001,
    "State": "Karnataka",
    "District": "Bangalore"
  },
  {
    "Location": "Vidyanagara",
    "Pincode": 562157,
    "State": "Karnataka",
    "District": "Bangalore"
  },
  {
    "Location": "Vidyaranyapura",
    "Pincode": 560097,
    "State": "Karnataka",
    "District": "Bangalore"
  },
  {
    "Location": "Vijayanagar",
    "Pincode": 560040,
    "State": "Karnataka",
    "District": "Bangalore"
  },
  {
    "Location": "Vijayanagar East",
    "Pincode": 560040,
    "State": "Karnataka",
    "District": "Bangalore"
  },
  {
    "Location": "Vikramnagar",
    "Pincode": 560078,
    "State": "Karnataka",
    "District": "Bangalore"
  },
  {
    "Location": "Vimapura",
    "Pincode": 560017,
    "State": "Karnataka",
    "District": "Bangalore"
  },
  {
    "Location": "Virgonagar",
    "Pincode": 560049,
    "State": "Karnataka",
    "District": "Bangalore"
  },
  {
    "Location": "Visveswarapuram",
    "Pincode": 560004,
    "State": "Karnataka",
    "District": "Bangalore"
  },
  {
    "Location": "Viswaneedam",
    "Pincode": 560091,
    "State": "Karnataka",
    "District": "Bangalore"
  },
  {
    "Location": "Vittalnagar",
    "Pincode": 560018,
    "State": "Karnataka",
    "District": "Bangalore"
  },
  {
    "Location": "Viveknagar",
    "Pincode": 560047,
    "State": "Karnataka",
    "District": "Bangalore"
  },
  {
    "Location": "Vyalikaval Extn",
    "Pincode": 560003,
    "State": "Karnataka",
    "District": "Bangalore"
  },
  {
    "Location": "Wheel And axle plant",
    "Pincode": 560064,
    "State": "Karnataka",
    "District": "Bangalore"
  },
  {
    "Location": "Whitefield",
    "Pincode": 560066,
    "State": "Karnataka",
    "District": "Bangalore"
  },
  {
    "Location": "Wilson Garden",
    "Pincode": 560027,
    "State": "Karnataka",
    "District": "Bangalore"
  },
  {
    "Location": "Yadavanahalli",
    "Pincode": 562107,
    "State": "Karnataka",
    "District": "Bangalore"
  },
  {
    "Location": "Yediyur",
    "Pincode": 560070,
    "State": "Karnataka",
    "District": "Bangalore"
  },
  {
    "Location": "Yelachenahalli",
    "Pincode": 560078,
    "State": "Karnataka",
    "District": "Bangalore"
  },
  {
    "Location": "Yelahanka",
    "Pincode": 560064,
    "State": "Karnataka",
    "District": "Bangalore"
  },
  {
    "Location": "Yelahanka Satellite town",
    "Pincode": 560064,
    "State": "Karnataka",
    "District": "Bangalore"
  },
  {
    "Location": "Yemalur",
    "Pincode": 560037,
    "State": "Karnataka",
    "District": "Bangalore"
  },
  {
    "Location": "Yeshwanthpur Bazar",
    "Pincode": 560022,
    "State": "Karnataka",
    "District": "Bangalore"
  },
  {
    "Location": "Yeswanthpura",
    "Pincode": 560022,
    "State": "Karnataka",
    "District": "Bangalore"
  }
]
